{
    "links": {
        "self": "http://www.neowsapp.com/rest/v1/neo/3671001?api_key=iIulBulltgU6a56xZRHN4H3l9WmuAYTsLGpBGhQ2"
    },
    "id": "3671001",
    "neo_reference_id": "3671001",
    "name": "(2014 JA31)",
    "designation": "2014 JA31",
    "nasa_jpl_url": "http://ssd.jpl.nasa.gov/sbdb.cgi?sstr=3671001",
    "absolute_magnitude_h": 23.6,
    "estimated_diameter": {
        "kilometers": {
            "estimated_diameter_min": 0.0506471459,
            "estimated_diameter_max": 0.1132504611
        },
        "meters": {
            "estimated_diameter_min": 50.6471458835,
            "estimated_diameter_max": 113.2504610618
        },
        "miles": {
            "estimated_diameter_min": 0.0314706677,
            "estimated_diameter_max": 0.0703705522
        },
        "feet": {
            "estimated_diameter_min": 166.1651821003,
            "estimated_diameter_max": 371.5566426699
        }
    },
    "is_potentially_hazardous_asteroid": false,
    "close_approach_data": [
        {
            "close_approach_date": "2014-05-17",
            "close_approach_date_full": "2014-May-17 01:45",
            "epoch_date_close_approach": 1400291100000,
            "relative_velocity": {
                "kilometers_per_second": "14.3683977508",
                "kilometers_per_hour": "51726.2319027371",
                "miles_per_hour": "32140.6689286757"
            },
            "miss_distance": {
                "astronomical": "0.0655499468",
                "lunar": "25.4989293052",
                "kilometers": "9806132.419893316",
                "miles": "6093248.1380511208"
            },
            "orbiting_body": "Earth"
        }
    ],
    "orbital_data": {
        "orbit_id": "9",
        "orbit_determination_date": "2017-04-06 08:40:35",
        "first_observation_date": "2014-05-08",
        "last_observation_date": "2014-05-17",
        "data_arc_in_days": 9,
        "observations_used": 43,
        "orbit_uncertainty": "8",
        "minimum_orbit_intersection": ".0646228",
        "jupiter_tisserand_invariant": "4.746",
        "epoch_osculation": "2456787.5",
        "eccentricity": ".2168534214651412",
        "semi_major_axis": "1.349607482353774",
        "inclination": "26.40843072365629",
        "ascending_node_longitude": "54.80543759748601",
        "orbital_period": "572.676870364094",
        "perihelion_distance": "1.056940482170403",
        "perihelion_argument": "206.3508945596068",
        "aphelion_distance": "1.642274482537145",
        "perihelion_time": "2456819.328310055826",
        "mean_anomaly": "339.9918728814514",
        "mean_motion": ".6286267503192868",
        "equinox": "J2000",
        "orbit_class": {
            "orbit_class_type": "AMO",
            "orbit_class_description": "Near-Earth asteroid orbits similar to that of 1221 Amor",
            "orbit_class_range": "1.017 AU < q (perihelion) < 1.3 AU"
        }
    },
    "is_sentry_object": false
}